[{"OBJECT_NAME":"ASTROCAST-0402","OBJECT_ID":"2023-001DE","EPOCH":"2026-03-09T19:21:31.190400","MEAN_MOTION":15.26734153,"ECCENTRICITY":0.00042092,"INCLINATION":97.5556,"RA_OF_ASC_NODE":160.6821,"ARG_OF_PERICENTER":216.6984,"MEAN_ANOMALY":143.3966,"EPHEMERIS_TYPE":0,"CLASSIFICATION_TYPE":"U","NORAD_CAT_ID":55109,"ELEMENT_SET_NO":999,"REV_AT_EPOCH":12936,"BSTAR":0.00041835119,"MEAN_MOTION_DOT":0.0001093,"MEAN_MOTION_DDOT":0},{"OBJECT_NAME":"STARLINK-31663","OBJECT_ID":"2024-076N","EPOCH":"2026-03-09T04:38:08.750976","MEAN_MOTION":15.27564134,"ECCENTRICITY":0.0001489,"INCLINATION":43.0028,"RA_OF_ASC_NODE":12.0711,"ARG_OF_PERICENTER":274.3528,"MEAN_ANOMALY":85.7154,"EPHEMERIS_TYPE":0,"CLASSIFICATION_TYPE":"U","NORAD_CAT_ID":59576,"ELEMENT_SET_NO":999,"REV_AT_EPOCH":10642,"BSTAR":-6.0810028e-5,"MEAN_MOTION_DOT":-1.934e-5,"MEAN_MOTION_DDOT":0}]
